{
  "type": "FeatureCollection",
  "features": [
    {
      "type": "Feature",
      "properties": {
        "norad_id": 31955,
        "name": "FENGYUN 1C DEB",
        "group": "fengyun-1c-debris",
        "lat": 37.35174734933409,
        "lon": 43.81618302284519,
        "alt_km": 662.3080439310925,
        "timestamp": "2025-12-06T14:35:37.411729+00:00",
        "meta_object_name": "FENGYUN 1C DEB",
        "meta_object_id": "1999-025CNG",
        "meta_epoch": "2025-12-04T10:15:55.992960",
        "meta_mean_motion": 14.6366114,
        "meta_eccentricity": 0.0043225,
        "meta_inclination": 99.2809,
        "meta_ra_of_asc_node": 214.1942,
        "meta_arg_of_pericenter": 207.1479,
        "meta_mean_anomaly": 332.853,
        "meta_ephemeris_type": 0,
        "meta_classification_type": "U",
        "meta_norad_cat_id": 31955,
        "meta_element_set_no": 999,
        "meta_rev_at_epoch": 96435,
        "meta_bstar": 0.0045868,
        "meta_mean_motion_dot": 0.00024204,
        "meta_mean_motion_ddot": 0,
        "tle_line1": "1 31955U 99025CNG 25338.42773140  .00024204  00000+0  45868-2 0  9991",
        "tle_line2": "2 31955  99.2809 214.1942 0043225 207.1479 332.8530 14.63661140964354"
      },
      "geometry": {
        "type": "Point",
        "coordinates": [
          43.81618302284519,
          37.35174734933409
        ]
      }
    },
    {
      "type": "Feature",
      "properties": {
        "norad_id": 31959,
        "name": "FENGYUN 1C DEB",
        "group": "fengyun-1c-debris",
        "lat": -28.535818976252365,
        "lon": 26.91430655219691,
        "alt_km": 726.7787192479673,
        "timestamp": "2025-12-06T14:35:37.411739+00:00",
        "meta_object_name": "FENGYUN 1C DEB",
        "meta_object_id": "1999-025CNL",
        "meta_epoch": "2025-12-03T09:15:58.403232",
        "meta_mean_motion": 14.4647152,
        "meta_eccentricity": 0.00265609,
        "meta_inclination": 98.5103,
        "meta_ra_of_asc_node": 208.3494,
        "meta_arg_of_pericenter": 186.1807,
        "meta_mean_anomaly": 173.9061,
        "meta_ephemeris_type": 0,
        "meta_classification_type": "U",
        "meta_norad_cat_id": 31959,
        "meta_element_set_no": 999,
        "meta_rev_at_epoch": 64218,
        "meta_bstar": 0.0034525583,
        "meta_mean_motion_dot": 0.0001245,
        "meta_mean_motion_ddot": 0,
        "tle_line1": "1 31959U 99025CNL 25337.38609263  .00012450  00000+0  34526-2 0  9992",
        "tle_line2": "2 31959  98.5103 208.3494 0026560 186.1807 173.9061 14.46471520642187"
      },
      "geometry": {
        "type": "Point",
        "coordinates": [
          26.91430655219691,
          -28.535818976252365
        ]
      }
    },
    {
      "type": "Feature",
      "properties": {
        "norad_id": 31964,
        "name": "FENGYUN 1C DEB",
        "group": "fengyun-1c-debris",
        "lat": 81.22797167838715,
        "lon": 6.825764763830915,
        "alt_km": 675.5899193859168,
        "timestamp": "2025-12-06T14:35:37.411748+00:00",
        "meta_object_name": "FENGYUN 1C DEB",
        "meta_object_id": "1999-025CNR",
        "meta_epoch": "2025-12-03T07:07:49.497024",
        "meta_mean_motion": 14.5811134,
        "meta_eccentricity": 0.0028951,
        "meta_inclination": 98.6996,
        "meta_ra_of_asc_node": 100.4929,
        "meta_arg_of_pericenter": 61.9427,
        "meta_mean_anomaly": 298.4693,
        "meta_ephemeris_type": 0,
        "meta_classification_type": "U",
        "meta_norad_cat_id": 31964,
        "meta_element_set_no": 999,
        "meta_rev_at_epoch": 67372,
        "meta_bstar": 0.0035887,
        "meta_mean_motion_dot": 0.00016609,
        "meta_mean_motion_ddot": 0,
        "tle_line1": "1 31964U 99025CNR 25337.29710066  .00016609  00000+0  35887-2 0  9993",
        "tle_line2": "2 31964  98.6996 100.4929 0028951  61.9427 298.4693 14.58111340673725"
      },
      "geometry": {
        "type": "Point",
        "coordinates": [
          6.825764763830915,
          81.22797167838715
        ]
      }
    },
    {
      "type": "Feature",
      "properties": {
        "norad_id": 31966,
        "name": "FENGYUN 1C DEB",
        "group": "fengyun-1c-debris",
        "lat": -47.43053149120392,
        "lon": -57.367176778091164,
        "alt_km": 650.6475358985554,
        "timestamp": "2025-12-06T14:35:37.411758+00:00",
        "meta_object_name": "FENGYUN 1C DEB",
        "meta_object_id": "1999-025CNT",
        "meta_epoch": "2025-12-06T03:43:48.292320",
        "meta_mean_motion": 14.67394436,
        "meta_eccentricity": 0.00862144,
        "meta_inclination": 99.0168,
        "meta_ra_of_asc_node": 132.0897,
        "meta_arg_of_pericenter": 295.1567,
        "meta_mean_anomaly": 64.0711,
        "meta_ephemeris_type": 0,
        "meta_classification_type": "U",
        "meta_norad_cat_id": 31966,
        "meta_element_set_no": 999,
        "meta_rev_at_epoch": 65646,
        "meta_bstar": 0.0019105715,
        "meta_mean_motion_dot": 0.00011375,
        "meta_mean_motion_ddot": 0,
        "tle_line1": "1 31966U 99025CNT 25340.15542005  .00011375  00000+0  19106-2 0  9991",
        "tle_line2": "2 31966  99.0168 132.0897 0086214 295.1567  64.0711 14.67394436656469"
      },
      "geometry": {
        "type": "Point",
        "coordinates": [
          -57.367176778091164,
          -47.43053149120392
        ]
      }
    },
    {
      "type": "Feature",
      "properties": {
        "norad_id": 31972,
        "name": "FENGYUN 1C DEB",
        "group": "fengyun-1c-debris",
        "lat": 27.114474575898406,
        "lon": -153.09261375351738,
        "alt_km": 879.639064143721,
        "timestamp": "2025-12-06T14:35:37.411768+00:00",
        "meta_object_name": "FENGYUN 1C DEB",
        "meta_object_id": "1999-025CNZ",
        "meta_epoch": "2025-12-06T02:04:32.132064",
        "meta_mean_motion": 14.07505772,
        "meta_eccentricity": 0.00769974,
        "meta_inclination": 99.2138,
        "meta_ra_of_asc_node": 21.6082,
        "meta_arg_of_pericenter": 50.0776,
        "meta_mean_anomaly": 340.0139,
        "meta_ephemeris_type": 0,
        "meta_classification_type": "U",
        "meta_norad_cat_id": 31972,
        "meta_element_set_no": 999,
        "meta_rev_at_epoch": 94867,
        "meta_bstar": 0.00025269392,
        "meta_mean_motion_dot": 3.91e-06,
        "meta_mean_motion_ddot": 0,
        "tle_line1": "1 31972U 99025CNZ 25340.08648301  .00000391  00000+0  25269-3 0  9990",
        "tle_line2": "2 31972  99.2138  21.6082 0076997  50.0776 340.0139 14.07505772948670"
      },
      "geometry": {
        "type": "Point",
        "coordinates": [
          -153.09261375351738,
          27.114474575898406
        ]
      }
    },
    {
      "type": "Feature",
      "properties": {
        "norad_id": 31974,
        "name": "FENGYUN 1C DEB",
        "group": "fengyun-1c-debris",
        "lat": 41.237479154356016,
        "lon": 179.39233751819998,
        "alt_km": 841.6862219604791,
        "timestamp": "2025-12-06T14:35:37.411778+00:00",
        "meta_object_name": "FENGYUN 1C DEB",
        "meta_object_id": "1999-025CPB",
        "meta_epoch": "2025-12-04T11:32:51.698688",
        "meta_mean_motion": 14.29356268,
        "meta_eccentricity": 0.0071722,
        "meta_inclination": 98.3792,
        "meta_ra_of_asc_node": 349.9234,
        "meta_arg_of_pericenter": 327.4544,
        "meta_mean_anomaly": 32.2227,
        "meta_ephemeris_type": 0,
        "meta_classification_type": "U",
        "meta_norad_cat_id": 31974,
        "meta_element_set_no": 999,
        "meta_rev_at_epoch": 69304,
        "meta_bstar": 0.005893,
        "meta_mean_motion_dot": 0.00015424,
        "meta_mean_motion_ddot": 0,
        "tle_line1": "1 31974U 99025CPB 25338.48115392  .00015424  00000+0  58930-2 0  9995",
        "tle_line2": "2 31974  98.3792 349.9234 0071722 327.4544  32.2227 14.29356268693042"
      },
      "geometry": {
        "type": "Point",
        "coordinates": [
          179.39233751819998,
          41.237479154356016
        ]
      }
    },
    {
      "type": "Feature",
      "properties": {
        "norad_id": 31978,
        "name": "FENGYUN 1C DEB",
        "group": "fengyun-1c-debris",
        "lat": -21.218375801812968,
        "lon": -46.79284713211625,
        "alt_km": 1165.1313363749268,
        "timestamp": "2025-12-06T14:35:37.411788+00:00",
        "meta_object_name": "FENGYUN 1C DEB",
        "meta_object_id": "1999-025CPF",
        "meta_epoch": "2025-12-05T09:26:48.442272",
        "meta_mean_motion": 13.63089053,
        "meta_eccentricity": 0.02631323,
        "meta_inclination": 98.3803,
        "meta_ra_of_asc_node": 135.4409,
        "meta_arg_of_pericenter": 69.4232,
        "meta_mean_anomaly": 293.4931,
        "meta_ephemeris_type": 0,
        "meta_classification_type": "U",
        "meta_norad_cat_id": 31978,
        "meta_element_set_no": 999,
        "meta_rev_at_epoch": 91490,
        "meta_bstar": 0.0019607422,
        "meta_mean_motion_dot": 1.908e-05,
        "meta_mean_motion_ddot": 0,
        "tle_line1": "1 31978U 99025CPF 25339.39361623  .00001908  00000+0  19607-2 0  9990",
        "tle_line2": "2 31978  98.3803 135.4409 0263132  69.4232 293.4931 13.63089053914902"
      },
      "geometry": {
        "type": "Point",
        "coordinates": [
          -46.79284713211625,
          -21.218375801812968
        ]
      }
    }
  ]
}